ESTCUBE 1               
1 39161U 13021C   22213.66428221  .00000457  00000+0  78732-4 0  9994
2 39161  97.9065 289.7240 0008050 277.6203  82.4071 14.73024002496127
FENGYUN 3C              
1 39260U 13052A   22213.77843948  .00000036  00000+0  39183-4 0  9997
2 39260  98.4519 239.5934 0011814 139.2548 220.9498 14.15934311458339
CASSIOPE                
1 39265U 13055A   22213.84596004  .00005403  00000+0  14323-3 0  9992
2 39265  80.9626 219.1715 0619996 183.4785 176.2004 14.39308498458848
ZACUBE-1 (TSHEPISOSAT)  
1 39417U 13066B   22213.32148870  .00000546  00000+0  72803-4 0  9991
2 39417  97.6392 182.8035 0056016 257.2811 102.2138 14.82479149469772
CINEMA-3 (KHUSAT-2)     
1 39426U 13066L   22213.74696223  .00000376  00000+0  65231-4 0  9995
2 39426  97.7994 151.7136 0104659  90.7338 270.5862 14.70222107465922
TRITON-1                
1 39427U 13066M   22213.56288403  .00000506  00000+0  86137-4 0  9996
2 39427  97.8132 147.4003 0112977 120.0959 241.1505 14.69049583465607
DELFI-N3XT              
1 39428U 13066N   22213.54289441  .00000747  00000+0  12158-3 0  9996
2 39428  97.8141 145.9680 0118096 133.1178 227.9980 14.69313455465159
GOMX-1                  
1 39430U 13066Q   22213.81642346  .00000451  00000+0  89656-4 0  9996
2 39430  97.8060 118.4226 0147618 261.9268  96.5170 14.60286402462919
BRITE-PL1 (LEM)         
1 39431U 13066R   22213.86114484  .00000139  00000+0  38735-4 0  9994
2 39431  97.6972  63.5291 0202921  88.0181 274.4238 14.47382277458934
ICUBE-1                 
1 39432U 13066S   22213.44546076  .00000829  00000+0  85906-4 0  9993
2 39432  97.4685 214.8887 0032515 112.8524 247.6135 14.92155190471411
HUMSAT-D                
1 39433U 13066T   22213.81215082  .00001076  00000+0  10351-3 0  9991
2 39433  97.4498 222.8765 0030939  87.0709 273.4052 14.94616261471995
VELOX-PII               
1 39438U 13066Y   22213.82991750  .00000551  00000+0  78820-4 0  9993
2 39438  97.6948 174.5520 0068102 309.7767  49.7460 14.79010746467716
FIRST-MOVE              
1 39439U 13066Z   22213.90915920  .00001155  00000+0  13912-3 0  9999
2 39439  97.6398 185.8520 0060836 250.1490 109.3161 14.84480616468792
CUBEBUG-2 (LO-74)       
1 39440U 13066AA  22213.30136737  .00000752  00000+0  10843-3 0  9998
2 39440  97.7284 168.9808 0078303 347.2163  12.7060 14.77137231466903
NEE-02 KRYSAOR          
1 39441U 13066AB  22213.81717948  .00000552  00000+0  83745-4 0  9994
2 39441  97.7395 166.6353 0080523 359.3507   0.7586 14.75835281466728
FUNCUBE-1 (AO-73)       
1 39444U 13066AE  22213.91210054  .00000665  00000+0  85013-4 0  9999
2 39444  97.6271 185.7797 0054950 242.8493 116.7112 14.83586954468265
HINCUBE                 
1 39445U 13066AF  22213.36260118  .00000667  00000+0  85583-4 0  9999
2 39445  97.6286 185.0706 0054955 247.0010 112.5402 14.83390199468127
UWE-3                   
1 39446U 13066AG  22213.85409610  .00000619  00000+0  86273-4 0  9990
2 39446  97.6882 175.9655 0067162 302.1059  57.3645 14.79703581467763
AIST-1 (RS-41)          
1 39492U 13078C   22213.83039719  .00000499  00000+0  50901-4 0  9996
2 39492  82.4173 193.1970 0018725 320.6099  39.3755 14.88515256466537
SPROUT                  
1 39770U 14029E   22213.81207642  .00002901  00000+0  29658-3 0  9996
2 39770  97.9465 331.0522 0007349 302.8452  57.2056 14.91343853444425
UNISAT-6                
1 40012U 14033C   22213.76905599  .00000385  00000+0  63044-4 0  9994
2 40012  97.6625  39.3129 0057742  13.7950 346.4821 14.75001985436664
BUGSAT-1 (TITA)         
1 40014U 14033E   22213.99458504  .00000086  00000+0  13151-4 0  9992
2 40014  98.1452 214.2610 0029651 246.3673 113.4434 14.96854057442953
DUCHIFAT-1              
1 40021U 14033M   22213.57914306  .00000918  00000+0  93824-4 0  9990
2 40021  98.0143 164.6118 0010866 249.9342 110.0707 14.93108888441437
NANOSATC-BR1            
1 40024U 14033Q   22213.82079647  .00000862  00000+0  91042-4 0  9999
2 40024  97.9867 157.9872 0010280 256.5769 103.4303 14.91919228440747
QB50P1                  
1 40025U 14033R   22213.77060581  .00000929  00000+0  10067-3 0  9992
2 40025  97.9609 151.5301 0010605 268.4512  91.5491 14.90664422440510
DTUSAT-2                
1 40030U 14033W   22213.77346984  .00000799  00000+0  88564-4 0  9995
2 40030  97.9372 146.7283 0010105 264.6940  95.3125 14.90106697440900
QB50P2                  
1 40032U 14033Y   22213.81371305  .00000750  00000+0  83496-4 0  9993
2 40032  97.9377 146.7828 0010009 265.7483  94.2591 14.90078884440371
POLYITAN-1              
1 40042U 14033AJ  22213.58238896  .00001116  00000+0  11947-3 0  9993
2 40042  97.9714 152.5926 0012715 260.2691  99.7091 14.90717512440887
TIGRISAT                
1 40043U 14033AK  22213.33864658  .00000295  00000+0  49843-4 0  9992
2 40043  97.6567  40.1771 0059497  12.5398 347.7275 14.75085440436247
AISAT                   
1 40054U 14034B   22213.74323567  .00001007  00000+0  14104-3 0  9992
2 40054  98.3625  26.9818 0012657 164.4589 195.7013 14.79857033436174
CANX-4                  
1 40055U 14034C   22213.36858450  .00000259  00000+0  46141-4 0  9990
2 40055  98.3612  11.7953 0013425 210.6278 149.4148 14.75490321435348
CANX-5                  
1 40056U 14034D   22213.37523128  .00000257  00000+0  45922-4 0  9997
2 40056  98.3612  11.7825 0013426 210.8198 149.2224 14.75485437426155
VELOX-I                 
1 40057U 14034E   22213.76744601  .00000937  00000+0  13360-3 0  9997
2 40057  98.3676  28.1299 0010626 178.2385 181.8857 14.79282711436178
METEOR-M 2              
1 40069U 14037A   22213.74882535 -.00000015  00000+0  12439-4 0  9995
2 40069  98.4307 229.4850 0005457 179.2105 180.9067 14.20714359418299
DX1                     
1 40071U 14037C   22213.84633898  .00000329  00000+0  48906-4 0  9990
2 40071  98.4036  84.8299 0008625 163.2724 196.8772 14.81925220436063
UKUBE-1                 
1 40074U 14037F   22213.95388732  .00000824  00000+0  10234-3 0  9991
2 40074  98.3755  96.9935 0004820 129.2430 230.9147 14.85534235436829
FIREBIRD 3              
1 40377U 15003B   22213.48138582  .00006527  00000+0  19248-3 0  9995
2 40377  99.0938  88.4695 0097035 231.9789 127.2658 15.30904297415308
FIREBIRD 4              
1 40378U 15003C   22213.89618399  .00006513  00000+0  19145-3 0  9991
2 40378  99.0941  89.1981 0096958 230.1839 129.0833 15.31010443415373
GRIFEX                  
1 40379U 15003D   22213.83345040  .00003938  00000+0  14037-3 0  9999
2 40379  99.1066  74.5325 0112756 274.9675  83.8693 15.23922983414543
CP10 (EXOCUBE)          
1 40380U 15003E   22213.84096524  .00002574  00000+0  10151-3 0  9990
2 40380  99.1166  67.1430 0121277 299.9605  58.9629 15.20368116414056
DEORBITSAIL             
1 40719U 15032E   22213.92452561  .00000807  00000+0  11708-3 0  9990
2 40719  97.7770  90.7412 0014770 212.9186 147.1107 14.78563135380602
NUDT-PHONESAT           
1 40900U 15049B   22213.83735132  .00014059  00000+0  37838-3 0  9994
2 40900  97.3983 232.1124 0011345 120.2977 357.3715 15.37910070381580
XW-2A                   
1 40903U 15049E   22213.84435874  .00011462  00000+0  17117-3 0  9991
2 40903  97.1757 272.4878 0007417 319.2922  99.6045 15.55172518386313
XW-2C                   
1 40906U 15049H   22213.84360391  .00002380  00000+0  11531-3 0  9998
2 40906  97.4922 216.9043 0013233 193.7187 250.2375 15.19459083379814
XW-2D                   
1 40907U 15049J   22213.84514211  .00002780  00000+0  13144-3 0  9997
2 40907  97.4910 216.9262 0012705 188.3390 247.8731 15.20164556379867
LILACSAT-2              
1 40908U 15049K   22213.83770237  .00001171  00000+0  64357-4 0  9995
2 40908  97.5168 213.9781 0014139 214.8388 228.9269 15.16010372379364
XW-2E                   
1 40909U 15049L   22213.84927348  .00004370  00000+0  18194-3 0  9995
2 40909  97.4642 221.5601 0012379 167.1564 315.6977 15.24208525380323
XW-2F                   
1 40910U 15049M   22213.97300152  .00004322  00000+0  18276-3 0  9997
2 40910  97.4717 220.8292 0013340 168.3847 222.2489 15.23676547380112
XW-2B                   
1 40911U 15049N   22213.88094047  .00002724  00000+0  12929-3 0  9994
2 40911  97.4902 217.5489 0012621 189.2532 286.7722 15.20047785379750
KAITUO 1B               
1 40912U 15049P   22213.83498933  .00005228  00000+0  20036-3 0  9992
2 40912  97.4354 225.0389 0014073 136.9592 348.4497 15.26872011380675
TIANWANG 1A (TW-1A)     
1 40928U 15051D   22213.86411172  .00025785  00000+0  28300-3 0  9997
2 40928  97.0352 236.2182 0006693 190.3816 293.4826 15.63176296385328
LAPAN-A2                
1 40931U 15052B   22213.63046592  .00000708  00000+0  94154-5 0  9997
2 40931   5.9964 206.7986 0012726  87.4224 272.7576 14.76837283370033
LQSAT                   
1 40958U 15057A   22213.83702989  .00000134  00000+0  27919-4 0  9999
2 40958  97.7469 258.0116 0018149 170.0699 190.0857 14.73398837366668
ATHENOXAT 1             
1 41168U 15077C   22213.91702411  .00007017  00000+0  26599-3 0  9993
2 41168  14.9838 113.1805 0008786 162.5374 280.3827 15.21939506367244
GALASSIA                
1 41170U 15077E   22213.91295021  .00005053  00000+0  18757-3 0  9995
2 41170  14.9879 104.4072 0010438 189.0186 170.9948 15.21083626367154
VELOX-II                
1 41171U 15077F   22213.25617689  .00003767  00000+0  15334-3 0  9999
2 41171  14.9899 184.9019 0007562  12.5125 347.5384 15.16298079366427
CHUBUSAT-2              
1 41338U 16012B   22213.07414113  .00000799  00000+0  53587-4 0  9996
2 41338  31.0030  99.7535 0013488 236.1008 123.8345 15.01509558354197
CHUBUSAT-3              
1 41339U 16012C   22213.86248834  .00000878  00000+0  59482-4 0  9997
2 41339  31.0118  91.6538 0013244 253.0157 106.9015 15.01579141354317
HORYU-4                 
1 41340U 16012D   22213.91720835  .00001304  00000+0  86778-4 0  9994
2 41340  31.0050  68.7249 0013436 293.0888  66.8332 15.03540070354571
